STARLINK-36624          
1 67636U 26020V   26053.00003471  .00101705  00000+0  62148-3 0  9996
2 67636  42.9996 237.0806 0001783 278.4829 125.1910 15.76314803  4869
STARLINK-36610          
1 67637U 26020W   26053.83792237  .00224898  00000+0  13441-2 0  9993
2 67637  42.9982 232.2960 0002129 273.1707  86.8919 15.76427588  3748
STARLINK-36599          
1 67638U 26020X   26052.59505837  .00375504  00000+0  17085-2 0  9993
2 67638  42.9983 239.2951 0003095 287.9163  72.1371 15.82028119  3552
STARLINK-36595          
1 67639U 26020Y   26053.00003471  .00166476  00000+0  10093-2 0  9996
2 67639  42.9992 236.9868 0001767 266.7354 174.2725 15.76277063  4864
STARLINK-36570          
1 67640U 26020Z   26053.76799625  .00390975  00000+0  22815-2 0  9992
2 67640  42.9997 232.6275 0001084 190.5911 169.4936 15.76498480  3734
STARLINK-36514          
1 67641U 26020AA  26053.83336806  .00078076  00000+0  47915-3 0  9993
2 67641  42.9991 231.7044 0001481 266.7496 316.2053 15.76314002  5009
STARLINK-36556          
1 67642U 26020AB  26053.82042117  .00298060  00000+0  17634-2 0  9993
2 67642  42.9986 232.1537 0002535 306.7845  53.2792 15.76446576  3749
STARLINK-36533          
1 67643U 26020AC  26053.83353139 -.00080041  00000+0 -49318-3 0  9999
2 67643  42.9984 232.2588 0001126 319.7190  40.3596 15.76366936  3747
STARLINK-36623          
1 67644U 26020AD  26053.82697731  .00214972  00000+0  12846-2 0  9993
2 67644  42.9981 232.2051 0001671 270.0694  89.9984 15.76459392  3742
STARLINK-36619          
1 67645U 26020AE  26052.87440234  .00225448  00000+0  13483-2 0  9990
2 67645  42.9976 237.9640 0001190 292.8765  67.1979 15.76410086  3592
ALSAT-3B                
1 67646U 26021A   26053.87049047  .00008352  00000+0  34997-3 0  9997
2 67646  97.4691 128.2716 0012720 181.0823 179.0389 15.23707297  3462
CZ-2C R/B               
1 67647U 26021B   26053.87384345  .00014486  00000+0  43569-3 0  9991
2 67647  97.6531 129.0461 0152916  62.8129 298.8601 15.23664197  3447
