CCSDS_OMM_VERS = 2.0
CREATION_DATE  = 
ORIGINATOR     = 

OBJECT_NAME    = STARLINK-36624
OBJECT_ID      = 2026-020V
CENTER_NAME    = EARTH
REF_FRAME      = TEME
TIME_SYSTEM    = UTC
MEAN_ELEMENT_THEORY = SGP/SGP4

EPOCH          = 2026-02-22T00:00:02.998944
MEAN_MOTION    = 15.76314803
ECCENTRICITY   = .0001783
INCLINATION    = 42.9996
RA_OF_ASC_NODE = 237.0806
ARG_OF_PERICENTER = 278.4829
MEAN_ANOMALY   = 125.1910

EPHEMERIS_TYPE = 0
CLASSIFICATION_TYPE = U
NORAD_CAT_ID   = 67636
ELEMENT_SET_NO = 999
REV_AT_EPOCH   = 486
BSTAR          = .62148E-3
MEAN_MOTION_DOT = .101705E-2
MEAN_MOTION_DDOT = 0

CCSDS_OMM_VERS = 2.0
CREATION_DATE  = 
ORIGINATOR     = 

OBJECT_NAME    = STARLINK-36610
OBJECT_ID      = 2026-020W
CENTER_NAME    = EARTH
REF_FRAME      = TEME
TIME_SYSTEM    = UTC
MEAN_ELEMENT_THEORY = SGP/SGP4

EPOCH          = 2026-02-22T20:06:36.492768
MEAN_MOTION    = 15.76427588
ECCENTRICITY   = .0002129
INCLINATION    = 42.9982
RA_OF_ASC_NODE = 232.2960
ARG_OF_PERICENTER = 273.1707
MEAN_ANOMALY   = 86.8919

EPHEMERIS_TYPE = 0
CLASSIFICATION_TYPE = U
NORAD_CAT_ID   = 67637
ELEMENT_SET_NO = 999
REV_AT_EPOCH   = 374
BSTAR          = .13441E-2
MEAN_MOTION_DOT = .224898E-2
MEAN_MOTION_DDOT = 0

CCSDS_OMM_VERS = 2.0
CREATION_DATE  = 
ORIGINATOR     = 

OBJECT_NAME    = STARLINK-36599
OBJECT_ID      = 2026-020X
CENTER_NAME    = EARTH
REF_FRAME      = TEME
TIME_SYSTEM    = UTC
MEAN_ELEMENT_THEORY = SGP/SGP4

EPOCH          = 2026-02-21T14:16:53.043168
MEAN_MOTION    = 15.82028119
ECCENTRICITY   = .0003095
INCLINATION    = 42.9983
RA_OF_ASC_NODE = 239.2951
ARG_OF_PERICENTER = 287.9163
MEAN_ANOMALY   = 72.1371

EPHEMERIS_TYPE = 0
CLASSIFICATION_TYPE = U
NORAD_CAT_ID   = 67638
ELEMENT_SET_NO = 999
REV_AT_EPOCH   = 355
BSTAR          = .17085E-2
MEAN_MOTION_DOT = .375504E-2
MEAN_MOTION_DDOT = 0

CCSDS_OMM_VERS = 2.0
CREATION_DATE  = 
ORIGINATOR     = 

OBJECT_NAME    = STARLINK-36595
OBJECT_ID      = 2026-020Y
CENTER_NAME    = EARTH
REF_FRAME      = TEME
TIME_SYSTEM    = UTC
MEAN_ELEMENT_THEORY = SGP/SGP4

EPOCH          = 2026-02-22T00:00:02.998944
MEAN_MOTION    = 15.76277063
ECCENTRICITY   = .0001767
INCLINATION    = 42.9992
RA_OF_ASC_NODE = 236.9868
ARG_OF_PERICENTER = 266.7354
MEAN_ANOMALY   = 174.2725

EPHEMERIS_TYPE = 0
CLASSIFICATION_TYPE = U
NORAD_CAT_ID   = 67639
ELEMENT_SET_NO = 999
REV_AT_EPOCH   = 486
BSTAR          = .10093E-2
MEAN_MOTION_DOT = .166476E-2
MEAN_MOTION_DDOT = 0

CCSDS_OMM_VERS = 2.0
CREATION_DATE  = 
ORIGINATOR     = 

OBJECT_NAME    = STARLINK-36570
OBJECT_ID      = 2026-020Z
CENTER_NAME    = EARTH
REF_FRAME      = TEME
TIME_SYSTEM    = UTC
MEAN_ELEMENT_THEORY = SGP/SGP4

EPOCH          = 2026-02-22T18:25:54.876000
MEAN_MOTION    = 15.76498480
ECCENTRICITY   = .0001084
INCLINATION    = 42.9997
RA_OF_ASC_NODE = 232.6275
ARG_OF_PERICENTER = 190.5911
MEAN_ANOMALY   = 169.4936

EPHEMERIS_TYPE = 0
CLASSIFICATION_TYPE = U
NORAD_CAT_ID   = 67640
ELEMENT_SET_NO = 999
REV_AT_EPOCH   = 373
BSTAR          = .22815E-2
MEAN_MOTION_DOT = .390975E-2
MEAN_MOTION_DDOT = 0

CCSDS_OMM_VERS = 2.0
CREATION_DATE  = 
ORIGINATOR     = 

OBJECT_NAME    = STARLINK-36514
OBJECT_ID      = 2026-020AA
CENTER_NAME    = EARTH
REF_FRAME      = TEME
TIME_SYSTEM    = UTC
MEAN_ELEMENT_THEORY = SGP/SGP4

EPOCH          = 2026-02-22T20:00:03.000384
MEAN_MOTION    = 15.76314002
ECCENTRICITY   = .0001481
INCLINATION    = 42.9991
RA_OF_ASC_NODE = 231.7044
ARG_OF_PERICENTER = 266.7496
MEAN_ANOMALY   = 316.2053

EPHEMERIS_TYPE = 0
CLASSIFICATION_TYPE = U
NORAD_CAT_ID   = 67641
ELEMENT_SET_NO = 999
REV_AT_EPOCH   = 500
BSTAR          = .47915E-3
MEAN_MOTION_DOT = .78076E-3
MEAN_MOTION_DDOT = 0

CCSDS_OMM_VERS = 2.0
CREATION_DATE  = 
ORIGINATOR     = 

OBJECT_NAME    = STARLINK-36556
OBJECT_ID      = 2026-020AB
CENTER_NAME    = EARTH
REF_FRAME      = TEME
TIME_SYSTEM    = UTC
MEAN_ELEMENT_THEORY = SGP/SGP4

EPOCH          = 2026-02-22T19:41:24.389088
MEAN_MOTION    = 15.76446576
ECCENTRICITY   = .0002535
INCLINATION    = 42.9986
RA_OF_ASC_NODE = 232.1537
ARG_OF_PERICENTER = 306.7845
MEAN_ANOMALY   = 53.2792

EPHEMERIS_TYPE = 0
CLASSIFICATION_TYPE = U
NORAD_CAT_ID   = 67642
ELEMENT_SET_NO = 999
REV_AT_EPOCH   = 374
BSTAR          = .17634E-2
MEAN_MOTION_DOT = .29806E-2
MEAN_MOTION_DDOT = 0

CCSDS_OMM_VERS = 2.0
CREATION_DATE  = 
ORIGINATOR     = 

OBJECT_NAME    = STARLINK-36533
OBJECT_ID      = 2026-020AC
CENTER_NAME    = EARTH
REF_FRAME      = TEME
TIME_SYSTEM    = UTC
MEAN_ELEMENT_THEORY = SGP/SGP4

EPOCH          = 2026-02-22T20:00:17.112096
MEAN_MOTION    = 15.76366936
ECCENTRICITY   = .0001126
INCLINATION    = 42.9984
RA_OF_ASC_NODE = 232.2588
ARG_OF_PERICENTER = 319.7190
MEAN_ANOMALY   = 40.3596

EPHEMERIS_TYPE = 0
CLASSIFICATION_TYPE = U
NORAD_CAT_ID   = 67643
ELEMENT_SET_NO = 999
REV_AT_EPOCH   = 374
BSTAR          = -.49318E-3
MEAN_MOTION_DOT = -.80041E-3
MEAN_MOTION_DDOT = 0

CCSDS_OMM_VERS = 2.0
CREATION_DATE  = 
ORIGINATOR     = 

OBJECT_NAME    = STARLINK-36623
OBJECT_ID      = 2026-020AD
CENTER_NAME    = EARTH
REF_FRAME      = TEME
TIME_SYSTEM    = UTC
MEAN_ELEMENT_THEORY = SGP/SGP4

EPOCH          = 2026-02-22T19:50:50.839584
MEAN_MOTION    = 15.76459392
ECCENTRICITY   = .0001671
INCLINATION    = 42.9981
RA_OF_ASC_NODE = 232.2051
ARG_OF_PERICENTER = 270.0694
MEAN_ANOMALY   = 89.9984

EPHEMERIS_TYPE = 0
CLASSIFICATION_TYPE = U
NORAD_CAT_ID   = 67644
ELEMENT_SET_NO = 999
REV_AT_EPOCH   = 374
BSTAR          = .12846E-2
MEAN_MOTION_DOT = .214972E-2
MEAN_MOTION_DDOT = 0

CCSDS_OMM_VERS = 2.0
CREATION_DATE  = 
ORIGINATOR     = 

OBJECT_NAME    = STARLINK-36619
OBJECT_ID      = 2026-020AE
CENTER_NAME    = EARTH
REF_FRAME      = TEME
TIME_SYSTEM    = UTC
MEAN_ELEMENT_THEORY = SGP/SGP4

EPOCH          = 2026-02-21T20:59:08.362176
MEAN_MOTION    = 15.76410086
ECCENTRICITY   = .000119
INCLINATION    = 42.9976
RA_OF_ASC_NODE = 237.9640
ARG_OF_PERICENTER = 292.8765
MEAN_ANOMALY   = 67.1979

EPHEMERIS_TYPE = 0
CLASSIFICATION_TYPE = U
NORAD_CAT_ID   = 67645
ELEMENT_SET_NO = 999
REV_AT_EPOCH   = 359
BSTAR          = .13483E-2
MEAN_MOTION_DOT = .225448E-2
MEAN_MOTION_DDOT = 0

CCSDS_OMM_VERS = 2.0
CREATION_DATE  = 
ORIGINATOR     = 

OBJECT_NAME    = ALSAT-3B
OBJECT_ID      = 2026-021A
CENTER_NAME    = EARTH
REF_FRAME      = TEME
TIME_SYSTEM    = UTC
MEAN_ELEMENT_THEORY = SGP/SGP4

EPOCH          = 2026-02-22T20:53:30.376608
MEAN_MOTION    = 15.23707297
ECCENTRICITY   = .001272
INCLINATION    = 97.4691
RA_OF_ASC_NODE = 128.2716
ARG_OF_PERICENTER = 181.0823
MEAN_ANOMALY   = 179.0389

EPHEMERIS_TYPE = 0
CLASSIFICATION_TYPE = U
NORAD_CAT_ID   = 67646
ELEMENT_SET_NO = 999
REV_AT_EPOCH   = 346
BSTAR          = .34997E-3
MEAN_MOTION_DOT = .8352E-4
MEAN_MOTION_DDOT = 0

CCSDS_OMM_VERS = 2.0
CREATION_DATE  = 
ORIGINATOR     = 

OBJECT_NAME    = CZ-2C R/B
OBJECT_ID      = 2026-021B
CENTER_NAME    = EARTH
REF_FRAME      = TEME
TIME_SYSTEM    = UTC
MEAN_ELEMENT_THEORY = SGP/SGP4

EPOCH          = 2026-02-22T20:58:20.074080
MEAN_MOTION    = 15.23664197
ECCENTRICITY   = .0152916
INCLINATION    = 97.6531
RA_OF_ASC_NODE = 129.0461
ARG_OF_PERICENTER = 62.8129
MEAN_ANOMALY   = 298.8601

EPHEMERIS_TYPE = 0
CLASSIFICATION_TYPE = U
NORAD_CAT_ID   = 67647
ELEMENT_SET_NO = 999
REV_AT_EPOCH   = 344
BSTAR          = .43569E-3
MEAN_MOTION_DOT = .14486E-3
MEAN_MOTION_DDOT = 0

